[
    {
        "Altitude(m)": 555601.0951087911,
        "Argument of Periapsis(deg)": 0.033114955553567506,
        "Eccentricity": 0.0,
        "Inclination(deg)": 53.0,
        "Latitude(deg)": 33.259803763878224,
        "Longitude(deg)": 125.45338814203092,
        "Mean Anomaly(deg)": 43.185364337887826,
        "RAAN(deg)": 199.95071684264008,
        "Satellite Name": "Starlink Shell 1 901",
        "Satellite Number": 901,
        "Semi-Major Axis(m)": 6931778.249405717,
        "Time(s)": 950
    },
    {
        "Altitude(m)": 555680.9757185864,
        "Argument of Periapsis(deg)": 0.03346353403307874,
        "Eccentricity": 0.0,
        "Inclination(deg)": 53.0,
        "Latitude(deg)": 33.69631138705433,
        "Longitude(deg)": 125.95248145280412,
        "Mean Anomaly(deg)": 43.8121955414446,
        "RAAN(deg)": 199.95019807256264,
        "Satellite Name": "Starlink Shell 1 901",
        "Satellite Number": 901,
        "Semi-Major Axis(m)": 6931778.249405717,
        "Time(s)": 960
    },
    {
        "Altitude(m)": 555761.4634227083,
        "Argument of Periapsis(deg)": 0.03381211251258998,
        "Eccentricity": 0.0,
        "Inclination(deg)": 53.0,
        "Latitude(deg)": 34.13040070760522,
        "Longitude(deg)": 126.45704667968373,
        "Mean Anomaly(deg)": 44.43902674500135,
        "RAAN(deg)": 199.94967930248515,
        "Satellite Name": "Starlink Shell 1 901",
        "Satellite Number": 901,
        "Semi-Major Axis(m)": 6931778.249405717,
        "Time(s)": 970
    },
    {
        "Altitude(m)": 555842.5026242735,
        "Argument of Periapsis(deg)": 0.034160690992101214,
        "Eccentricity": 0.0,
        "Inclination(deg)": 53.0,
        "Latitude(deg)": 34.56200802577931,
        "Longitude(deg)": 126.96719916524214,
        "Mean Anomaly(deg)": 45.06585794855801,
        "RAAN(deg)": 199.9491605324077,
        "Satellite Name": "Starlink Shell 1 901",
        "Satellite Number": 901,
        "Semi-Major Axis(m)": 6931778.249405717,
        "Time(s)": 980
    },
    {
        "Altitude(m)": 555924.0376530357,
        "Argument of Periapsis(deg)": 0.034509269471612446,
        "Eccentricity": 0.0,
        "Inclination(deg)": 53.0,
        "Latitude(deg)": 34.99106816972846,
        "Longitude(deg)": 127.48305568530117,
        "Mean Anomaly(deg)": 45.692689152114795,
        "RAAN(deg)": 199.94864176233023,
        "Satellite Name": "Starlink Shell 1 901",
        "Satellite Number": 901,
        "Semi-Major Axis(m)": 6931778.249405717,
        "Time(s)": 990
    }
]